STARLINK-31670          
1 59490U 24071G   26068.16467411  .00001330  00000+0  57863-4 0  9992
2 59490  42.9994 354.1263 0000412 293.6576  66.4232 15.27554228107995
YAM-7                   
1 60504U 24149AN  26068.71799904  .00009009  00000+0  30984-3 0  9997
2 60504  97.3828 149.4631 0001973 296.5121  63.5918 15.30304554 86835
